start=new Date('2022-08-21T00:00:00.000Z').valueOf();
sats=[{"PERIAPSIS":"546.136","ECCENTRICITY":"0.00016060","INCLINATION":"53.0550","BSTAR":"-0.00010466000000","TLE_LINE2":"2 48320  53.0550 164.9260 0001606  64.8760 295.2395 15.06388693 72518","MEAN_ELEMENT_THEORY":"SGP4","MEAN_MOTION_DOT":"-0.00001840","FILE":"3541419","DECAY_DATE":null,"TIME_SYSTEM":"UTC","GP_ID":"210585539","OBJECT_NAME":"STARLINK-2029","APOAPSIS":"548.360","SITE":"AFETR","LAUNCH_DATE":"2021-04-29","ARG_OF_PERICENTER":"64.8760","PERIOD":"95.593","EPOCH":"2022-08-20T12:05:09.276576","ELEMENT_SET_NO":"999","TLE_LINE1":"1 48320U 21036AW  22232.50357959 -.00001840  00000-0 -10466-3 0  9998","REV_AT_EPOCH":"7251","MEAN_ANOMALY":"295.2395","CENTER_NAME":"EARTH","MEAN_MOTION_DDOT":"0.0000000000000","CLASSIFICATION_TYPE":"U","RA_OF_ASC_NODE":"164.9260","COUNTRY_CODE":"US","OBJECT_ID":"2021-036AW","SEMIMAJOR_AXIS":"6925.383","MEAN_MOTION":"15.06388693","EPHEMERIS_TYPE":"0","REF_FRAME":"TEME","RCS_SIZE":"LARGE","NORAD_CAT_ID":"48320","OBJECT_TYPE":"PAYLOAD"},{"INCLINATION":"53.0556","BSTAR":"-0.00003307300000","TLE_LINE2":"2 48321  53.0556 166.7253 0001758  54.6508 305.4645 15.06395028 72457","PERIAPSIS":"546.011","ECCENTRICITY":"0.00017580","SITE":"AFETR","APOAPSIS":"548.446","ELEMENT_SET_NO":"999","TLE_LINE1":"1 48321U 21036AX  22232.10180534 -.00000774  00000-0 -33073-4 0  9993","LAUNCH_DATE":"2021-04-29","ARG_OF_PERICENTER":"54.6508","PERIOD":"95.592","EPOCH":"2022-08-20T02:26:35.981376","MEAN_MOTION_DOT":"-0.00000774","MEAN_ELEMENT_THEORY":"SGP4","DECAY_DATE":null,"FILE":"3541419","OBJECT_NAME":"STARLINK-2457","GP_ID":"210586790","TIME_SYSTEM":"UTC","CLASSIFICATION_TYPE":"U","COUNTRY_CODE":"US","RA_OF_ASC_NODE":"166.7253","MEAN_ANOMALY":"305.4645","CENTER_NAME":"EARTH","REV_AT_EPOCH":"7245","MEAN_MOTION_DDOT":"0.0000000000000","EPHEMERIS_TYPE":"0","REF_FRAME":"TEME","NORAD_CAT_ID":"48321","OBJECT_TYPE":"PAYLOAD","RCS_SIZE":"LARGE","SEMIMAJOR_AXIS":"6925.364","OBJECT_ID":"2021-036AX","MEAN_MOTION":"15.06395028"},{"BSTAR":"-0.00007403100000","TLE_LINE2":"2 48322  53.0560 164.3552 0001271  75.4803 284.6327 15.06395168 72537","INCLINATION":"53.0560","ECCENTRICITY":"0.00012710","PERIAPSIS":"546.348","TLE_LINE1":"1 48322U 21036AY  22232.62889854 -.00001384  00000-0 -74031-4 0  9999","ELEMENT_SET_NO":"999","PERIOD":"95.592","ARG_OF_PERICENTER":"75.4803","EPOCH":"2022-08-20T15:05:36.833856","LAUNCH_DATE":"2021-04-29","SITE":"AFETR","APOAPSIS":"548.109","OBJECT_NAME":"STARLINK-2477","GP_ID":"210619351","TIME_SYSTEM":"UTC","FILE":"3541760","DECAY_DATE":null,"MEAN_MOTION_DOT":"-0.00001384","MEAN_ELEMENT_THEORY":"SGP4","COUNTRY_CODE":"US","RA_OF_ASC_NODE":"164.3552","CLASSIFICATION_TYPE":"U","MEAN_MOTION_DDOT":"0.0000000000000","CENTER_NAME":"EARTH","MEAN_ANOMALY":"284.6327","REV_AT_EPOCH":"7253","OBJECT_TYPE":"PAYLOAD","NORAD_CAT_ID":"48322","RCS_SIZE":"LARGE","REF_FRAME":"TEME","EPHEMERIS_TYPE":"0","MEAN_MOTION":"15.06395168","SEMIMAJOR_AXIS":"6925.363","OBJECT_ID":"2021-036AY"},{"RCS_SIZE":"LARGE","NORAD_CAT_ID":"48323","OBJECT_TYPE":"PAYLOAD","EPHEMERIS_TYPE":"0","REF_FRAME":"TEME","MEAN_MOTION":"15.06390763","OBJECT_ID":"2021-036AZ","SEMIMAJOR_AXIS":"6925.377","CLASSIFICATION_TYPE":"U","RA_OF_ASC_NODE":"165.8551","COUNTRY_CODE":"US","MEAN_MOTION_DDOT":"0.0000000000000","REV_AT_EPOCH":"7248","MEAN_ANOMALY":"289.8969","CENTER_NAME":"EARTH","LAUNCH_DATE":"2021-04-29","PERIOD":"95.593","EPOCH":"2022-08-20T07:02:36.434400","ARG_OF_PERICENTER":"70.2160","ELEMENT_SET_NO":"999","TLE_LINE1":"1 48323U 21036AZ  22232.29347725 -.00001525  00000-0 -83551-4 0  9993","APOAPSIS":"548.143","SITE":"AFETR","GP_ID":"210585789","TIME_SYSTEM":"UTC","OBJECT_NAME":"STARLINK-2515","MEAN_MOTION_DOT":"-0.00001525","MEAN_ELEMENT_THEORY":"SGP4","DECAY_DATE":null,"FILE":"3541419","TLE_LINE2":"2 48323  53.0544 165.8551 0001301  70.2160 289.8969 15.06390763 72487","BSTAR":"-0.00008355100000","INCLINATION":"53.0544","ECCENTRICITY":"0.00013010","PERIAPSIS":"546.341"},{"PERIAPSIS":"546.153","ECCENTRICITY":"0.00015600","INCLINATION":"53.0554","BSTAR":"-0.00013352000000","TLE_LINE2":"2 48324  53.0554 163.4737 0001560  74.4040 285.7121 15.06393645 72554","MEAN_MOTION_DOT":"-0.00002269","MEAN_ELEMENT_THEORY":"SGP4","DECAY_DATE":null,"FILE":"3541760","OBJECT_NAME":"STARLINK-2527","GP_ID":"210620325","TIME_SYSTEM":"UTC","SITE":"AFETR","APOAPSIS":"548.313","ELEMENT_SET_NO":"999","TLE_LINE1":"1 48324U 21036BA  22232.81962673 -.00002269  00000-0 -13352-3 0  9994","LAUNCH_DATE":"2021-04-29","ARG_OF_PERICENTER":"74.4040","PERIOD":"95.593","EPOCH":"2022-08-20T19:40:15.749472","MEAN_ANOMALY":"285.7121","CENTER_NAME":"EARTH","REV_AT_EPOCH":"7255","MEAN_MOTION_DDOT":"0.0000000000000","CLASSIFICATION_TYPE":"U","COUNTRY_CODE":"US","RA_OF_ASC_NODE":"163.4737","SEMIMAJOR_AXIS":"6925.368","OBJECT_ID":"2021-036BA","MEAN_MOTION":"15.06393645","EPHEMERIS_TYPE":"0","REF_FRAME":"TEME","NORAD_CAT_ID":"48324","OBJECT_TYPE":"PAYLOAD","RCS_SIZE":"LARGE"},{"APOAPSIS":"548.372","SITE":"AFETR","PERIOD":"95.593","EPOCH":"2022-08-20T02:05:22.968960","ARG_OF_PERICENTER":"68.1116","LAUNCH_DATE":"2021-04-29","TLE_LINE1":"1 48325U 21036BB  22232.08707140 -.00001882  00000-0 -10753-3 0  9992","ELEMENT_SET_NO":"999","FILE":"3541419","DECAY_DATE":null,"MEAN_ELEMENT_THEORY":"SGP4","MEAN_MOTION_DOT":"-0.00001882","TIME_SYSTEM":"UTC","GP_ID":"210586291","OBJECT_NAME":"STARLINK-2495","INCLINATION":"53.0550","TLE_LINE2":"2 48325  53.0550 166.7982 0001612  68.1116 292.0044 15.06386368 72459","BSTAR":"-0.00010753000000","PERIAPSIS":"546.139","ECCENTRICITY":"0.00016120","REF_FRAME":"TEME","EPHEMERIS_TYPE":"0","RCS_SIZE":"LARGE","OBJECT_TYPE":"PAYLOAD","NORAD_CAT_ID":"48325","OBJECT_ID":"2021-036BB","SEMIMAJOR_AXIS":"6925.390","MEAN_MOTION":"15.06386368","COUNTRY_CODE":"US","RA_OF_ASC_NODE":"166.7982","CLASSIFICATION_TYPE":"U","REV_AT_EPOCH":"7245","CENTER_NAME":"EARTH","MEAN_ANOMALY":"292.0044","MEAN_MOTION_DDOT":"0.0000000000000"},{"SITE":"AFETR","APOAPSIS":"548.165","ELEMENT_SET_NO":"999","TLE_LINE1":"1 48326U 21036BC  22232.08337793 -.00000081  00000-0  13467-4 0  9991","LAUNCH_DATE":"2021-04-29","EPOCH":"2022-08-20T02:00:03.853152","PERIOD":"95.593","ARG_OF_PERICENTER":"108.1966","MEAN_ELEMENT_THEORY":"SGP4","MEAN_MOTION_DOT":"-0.00000081","DECAY_DATE":null,"FILE":"3541419","OBJECT_NAME":"STARLINK-2498","GP_ID":"210586542","TIME_SYSTEM":"UTC","INCLINATION":"53.0544","BSTAR":"0.00001346700000","TLE_LINE2":"2 48326  53.0544 166.8113 0001338 108.1966 251.9169 15.06391776 72454","PERIAPSIS":"546.312","ECCENTRICITY":"0.00013380","EPHEMERIS_TYPE":"0","REF_FRAME":"TEME","NORAD_CAT_ID":"48326","OBJECT_TYPE":"PAYLOAD","RCS_SIZE":"MEDIUM","SEMIMAJOR_AXIS":"6925.374","OBJECT_ID":"2021-036BC","MEAN_MOTION":"15.06391776","CLASSIFICATION_TYPE":"U","RA_OF_ASC_NODE":"166.8113","COUNTRY_CODE":"US","MEAN_ANOMALY":"251.9169","CENTER_NAME":"EARTH","REV_AT_EPOCH":"7245","MEAN_MOTION_DDOT":"0.0000000000000"},{"RA_OF_ASC_NODE":"166.5256","COUNTRY_CODE":"US","CLASSIFICATION_TYPE":"U","MEAN_MOTION_DDOT":"0.0000000000000","CENTER_NAME":"EARTH","MEAN_ANOMALY":"289.1048","REV_AT_EPOCH":"7246","OBJECT_TYPE":"PAYLOAD","NORAD_CAT_ID":"48327","RCS_SIZE":"LARGE","REF_FRAME":"TEME","EPHEMERIS_TYPE":"0","MEAN_MOTION":"15.06387715","SEMIMAJOR_AXIS":"6925.386","OBJECT_ID":"2021-036BD","BSTAR":"-0.00007664000000","TLE_LINE2":"2 48327  53.0555 166.5256 0001608  71.0115 289.1048 15.06387715 72464","INCLINATION":"53.0555","ECCENTRICITY":"0.00016080","PERIAPSIS":"546.138","TLE_LINE1":"1 48327U 21036BD  22232.14604392 -.00001422  00000-0 -76640-4 0  9994","ELEMENT_SET_NO":"999","ARG_OF_PERICENTER":"71.0115","PERIOD":"95.593","EPOCH":"2022-08-20T03:30:18.194688","LAUNCH_DATE":"2021-04-29","SITE":"AFETR","APOAPSIS":"548.365","OBJECT_NAME":"STARLINK-2502","TIME_SYSTEM":"UTC","GP_ID":"210585290","DECAY_DATE":null,"FILE":"3541419","MEAN_MOTION_DOT":"-0.00001422","MEAN_ELEMENT_THEORY":"SGP4"},{"CLASSIFICATION_TYPE":"U","RA_OF_ASC_NODE":"165.6494","COUNTRY_CODE":"US","MEAN_MOTION_DDOT":"0.0000000000000","REV_AT_EPOCH":"7249","MEAN_ANOMALY":"293.5442","CENTER_NAME":"EARTH","RCS_SIZE":"LARGE","NORAD_CAT_ID":"48328","OBJECT_TYPE":"PAYLOAD","EPHEMERIS_TYPE":"0","REF_FRAME":"TEME","MEAN_MOTION":"15.06383437","OBJECT_ID":"2021-036BE","SEMIMAJOR_AXIS":"6925.399","TLE_LINE2":"2 48328  53.0558 165.6494 0001634  66.5718 293.5442 15.06383437 72496","BSTAR":"-0.00006048100000","INCLINATION":"53.0558","ECCENTRICITY":"0.00016340","PERIAPSIS":"546.133","LAUNCH_DATE":"2021-04-29","PERIOD":"95.593","ARG_OF_PERICENTER":"66.5718","EPOCH":"2022-08-20T08:10:15.029472","ELEMENT_SET_NO":"999","TLE_LINE1":"1 48328U 21036BE  22232.34045173 -.00001182  00000-0 -60481-4 0  9992","APOAPSIS":"548.396","SITE":"AFETR","TIME_SYSTEM":"UTC","GP_ID":"210585540","OBJECT_NAME":"STARLINK-2504","MEAN_MOTION_DOT":"-0.00001182","MEAN_ELEMENT_THEORY":"SGP4","FILE":"3541419","DECAY_DATE":null},{"LAUNCH_DATE":"2021-04-29","ARG_OF_PERICENTER":"49.5624","PERIOD":"95.593","EPOCH":"2022-08-20T19:15:04.775904","ELEMENT_SET_NO":"999","TLE_LINE1":"1 48329U 21036BF  22232.80213861 -.00001201  00000-0 -61758-4 0  9995","APOAPSIS":"548.433","SITE":"AFETR","GP_ID":"210618602","TIME_SYSTEM":"UTC","OBJECT_NAME":"STARLINK-2510","MEAN_ELEMENT_THEORY":"SGP4","MEAN_MOTION_DOT":"-0.00001201","DECAY_DATE":null,"FILE":"3541760","TLE_LINE2":"2 48329  53.0538 163.5796 0001693  49.5624 310.5512 15.06384754 72568","BSTAR":"-0.00006175800000","INCLINATION":"53.0538","ECCENTRICITY":"0.00016930","PERIAPSIS":"546.088","RCS_SIZE":"LARGE","NORAD_CAT_ID":"48329","OBJECT_TYPE":"PAYLOAD","EPHEMERIS_TYPE":"0","REF_FRAME":"TEME","MEAN_MOTION":"15.06384754","OBJECT_ID":"2021-036BF","SEMIMAJOR_AXIS":"6925.395","CLASSIFICATION_TYPE":"U","RA_OF_ASC_NODE":"163.5796","COUNTRY_CODE":"US","MEAN_MOTION_DDOT":"0.0000000000000","REV_AT_EPOCH":"7256","MEAN_ANOMALY":"310.5512","CENTER_NAME":"EARTH"}];
